start=new Date('2022-03-27T00:00:00.000Z').valueOf();
sats=[{"DECAY_DATE":null,"REV_AT_EPOCH":"10149","RA_OF_ASC_NODE":"39.3709","PERIOD":"95.592","MEAN_MOTION_DOT":"0.00000591","NORAD_CAT_ID":"45700","CENTER_NAME":"EARTH","RCS_SIZE":"LARGE","TLE_LINE1":"1 45700U 20035AV  22085.60460638  .00000591  00000-0  58573-4 0  9993","ARG_OF_PERICENTER":"75.0894","INCLINATION":"53.0558","SITE":"AFETR","REF_FRAME":"TEME","MEAN_MOTION_DDOT":"0.0000000000000","OBJECT_NAME":"STARLINK-1400","EPOCH":"2022-03-26T14:30:37.991232","GP_ID":"199777562","MEAN_MOTION":"15.06400935","MEAN_ELEMENT_THEORY":"SGP4","ECCENTRICITY":"0.00015340","ELEMENT_SET_NO":"999","TIME_SYSTEM":"UTC","CLASSIFICATION_TYPE":"U","COUNTRY_CODE":"US","OBJECT_ID":"2020-035AV","LAUNCH_DATE":"2020-06-04","TLE_LINE2":"2 45700  53.0558  39.3709 0001534  75.0894 285.0264 15.06400935101496","MEAN_ANOMALY":"285.0264","APOAPSIS":"548.273","PERIAPSIS":"546.148","OBJECT_TYPE":"PAYLOAD","BSTAR":"0.00005857300000","FILE":"3375650","SEMIMAJOR_AXIS":"6925.346","EPHEMERIS_TYPE":"0"},{"MEAN_ELEMENT_THEORY":"SGP4","ECCENTRICITY":"0.00018050","ELEMENT_SET_NO":"999","MEAN_MOTION":"15.06393554","INCLINATION":"53.0552","REF_FRAME":"TEME","SITE":"AFETR","MEAN_MOTION_DDOT":"0.0000000000000","OBJECT_NAME":"STARLINK-1403","EPOCH":"2022-03-26T21:35:15.813312","GP_ID":"199777813","DECAY_DATE":null,"REV_AT_EPOCH":"10153","RA_OF_ASC_NODE":"38.0329","PERIOD":"95.593","MEAN_MOTION_DOT":"-0.00000164","NORAD_CAT_ID":"45701","CENTER_NAME":"EARTH","RCS_SIZE":"LARGE","TLE_LINE1":"1 45701U 20035AW  22085.89948858 -.00000164  00000-0  78778-5 0  9997","ARG_OF_PERICENTER":"46.5920","BSTAR":"0.00000787780000","FILE":"3375650","SEMIMAJOR_AXIS":"6925.368","EPHEMERIS_TYPE":"0","MEAN_ANOMALY":"313.5219","APOAPSIS":"548.483","PERIAPSIS":"545.983","OBJECT_TYPE":"PAYLOAD","LAUNCH_DATE":"2020-06-04","OBJECT_ID":"2020-035AW","TLE_LINE2":"2 45701  53.0552  38.0329 0001805  46.5920 313.5219 15.06393554101539","TIME_SYSTEM":"UTC","CLASSIFICATION_TYPE":"U","COUNTRY_CODE":"US"},{"BSTAR":"0.00000700010000","FILE":"3375650","EPHEMERIS_TYPE":"0","SEMIMAJOR_AXIS":"6925.356","MEAN_ANOMALY":"295.2856","OBJECT_TYPE":"PAYLOAD","PERIAPSIS":"546.052","APOAPSIS":"548.391","TLE_LINE2":"2 45702  53.0555  38.1214 0001689  64.8309 295.2856 15.06397419101538","LAUNCH_DATE":"2020-06-04","OBJECT_ID":"2020-035AX","TIME_SYSTEM":"UTC","CLASSIFICATION_TYPE":"U","COUNTRY_CODE":"US","ECCENTRICITY":"0.00016890","MEAN_ELEMENT_THEORY":"SGP4","ELEMENT_SET_NO":"999","MEAN_MOTION":"15.06397419","SITE":"AFETR","REF_FRAME":"TEME","INCLINATION":"53.0555","MEAN_MOTION_DDOT":"0.0000000000000","EPOCH":"2022-03-26T21:08:43.290240","GP_ID":"199778564","OBJECT_NAME":"STARLINK-1405","PERIOD":"95.592","MEAN_MOTION_DOT":"-0.00000177","RA_OF_ASC_NODE":"38.1214","REV_AT_EPOCH":"10153","DECAY_DATE":null,"NORAD_CAT_ID":"45702","RCS_SIZE":"LARGE","CENTER_NAME":"EARTH","ARG_OF_PERICENTER":"64.8309","TLE_LINE1":"1 45702U 20035AX  22085.88105660 -.00000177  00000-0  70001-5 0  9998"},{"GP_ID":"199777312","EPOCH":"2022-03-26T21:03:24.208128","OBJECT_NAME":"STARLINK-1407","MEAN_MOTION_DDOT":"0.0000000000000","SITE":"AFETR","REF_FRAME":"TEME","INCLINATION":"53.0564","ARG_OF_PERICENTER":"65.1464","TLE_LINE1":"1 45703U 20035AY  22085.87736352  .00000515  00000-0  53450-4 0  9999","RCS_SIZE":"LARGE","CENTER_NAME":"EARTH","NORAD_CAT_ID":"45703","MEAN_MOTION_DOT":"0.00000515","PERIOD":"95.592","RA_OF_ASC_NODE":"38.1493","DECAY_DATE":null,"REV_AT_EPOCH":"10153","ELEMENT_SET_NO":"999","ECCENTRICITY":"0.00016630","MEAN_ELEMENT_THEORY":"SGP4","MEAN_MOTION":"15.06402490","TLE_LINE2":"2 45703  53.0564  38.1493 0001663  65.1464 294.9698 15.06402490101532","OBJECT_ID":"2020-035AY","LAUNCH_DATE":"2020-06-04","COUNTRY_CODE":"US","CLASSIFICATION_TYPE":"U","TIME_SYSTEM":"UTC","EPHEMERIS_TYPE":"0","SEMIMAJOR_AXIS":"6925.341","BSTAR":"0.00005345000000","FILE":"3375650","OBJECT_TYPE":"PAYLOAD","APOAPSIS":"548.358","PERIAPSIS":"546.054","MEAN_ANOMALY":"294.9698"},{"MEAN_ANOMALY":"298.4719","OBJECT_TYPE":"PAYLOAD","PERIAPSIS":"545.910","APOAPSIS":"548.515","EPHEMERIS_TYPE":"0","SEMIMAJOR_AXIS":"6925.347","FILE":"3375650","BSTAR":"0.00004886000000","COUNTRY_CODE":"US","TIME_SYSTEM":"UTC","CLASSIFICATION_TYPE":"U","TLE_LINE2":"2 45704  53.0573  68.0336 0001881  61.6459 298.4719 15.06400407101122","OBJECT_ID":"2020-035AZ","LAUNCH_DATE":"2020-06-04","MEAN_MOTION":"15.06400407","ELEMENT_SET_NO":"999","MEAN_ELEMENT_THEORY":"SGP4","ECCENTRICITY":"0.00018810","RCS_SIZE":"LARGE","CENTER_NAME":"EARTH","ARG_OF_PERICENTER":"61.6459","TLE_LINE1":"1 45704U 20035AZ  22085.90314730  .00000446  00000-0  48860-4 0  9998","PERIOD":"95.592","RA_OF_ASC_NODE":"68.0336","MEAN_MOTION_DOT":"0.00000446","DECAY_DATE":null,"REV_AT_EPOCH":"10112","NORAD_CAT_ID":"45704","MEAN_MOTION_DDOT":"0.0000000000000","GP_ID":"199777062","EPOCH":"2022-03-26T21:40:31.926720","OBJECT_NAME":"STARLINK-1409","REF_FRAME":"TEME","SITE":"AFETR","INCLINATION":"53.0573"},{"COUNTRY_CODE":"US","CLASSIFICATION_TYPE":"U","TIME_SYSTEM":"UTC","OBJECT_ID":"2020-035BA","LAUNCH_DATE":"2020-06-04","TLE_LINE2":"2 45705  53.0544  69.0964 0002015  54.8024 305.3154 15.06386302101073","APOAPSIS":"548.651","PERIAPSIS":"545.860","OBJECT_TYPE":"PAYLOAD","MEAN_ANOMALY":"305.3154","SEMIMAJOR_AXIS":"6925.391","EPHEMERIS_TYPE":"0","FILE":"3375650","BSTAR":"-0.00007941600000","TLE_LINE1":"1 45705U 20035BA  22085.66452155 -.00001464  00000-0 -79416-4 0  9990","ARG_OF_PERICENTER":"54.8024","CENTER_NAME":"EARTH","RCS_SIZE":"LARGE","NORAD_CAT_ID":"45705","DECAY_DATE":null,"REV_AT_EPOCH":"10107","PERIOD":"95.593","MEAN_MOTION_DOT":"-0.00001464","RA_OF_ASC_NODE":"69.0964","OBJECT_NAME":"STARLINK-1410","GP_ID":"199778314","EPOCH":"2022-03-26T15:56:54.661920","MEAN_MOTION_DDOT":"0.0000000000000","INCLINATION":"53.0544","REF_FRAME":"TEME","SITE":"AFETR","MEAN_MOTION":"15.06386302","ELEMENT_SET_NO":"999","MEAN_ELEMENT_THEORY":"SGP4","ECCENTRICITY":"0.00020150"},{"MEAN_MOTION":"15.06395170","ELEMENT_SET_NO":"999","MEAN_ELEMENT_THEORY":"SGP4","ECCENTRICITY":"0.00018000","CENTER_NAME":"EARTH","RCS_SIZE":"LARGE","TLE_LINE1":"1 45706U 20035BB  22085.58987052  .00000754  00000-0  69545-4 0  9992","ARG_OF_PERICENTER":"55.5956","DECAY_DATE":null,"REV_AT_EPOCH":"10148","PERIOD":"95.592","MEAN_MOTION_DOT":"0.00000754","RA_OF_ASC_NODE":"39.4274","NORAD_CAT_ID":"45706","MEAN_MOTION_DDOT":"0.0000000000000","OBJECT_NAME":"STARLINK-1411","EPOCH":"2022-03-26T14:09:24.812928","GP_ID":"199778064","INCLINATION":"53.0548","REF_FRAME":"TEME","SITE":"AFETR","MEAN_ANOMALY":"304.5203","PERIAPSIS":"545.982","APOAPSIS":"548.475","OBJECT_TYPE":"PAYLOAD","SEMIMAJOR_AXIS":"6925.363","EPHEMERIS_TYPE":"0","BSTAR":"0.00006954500000","FILE":"3375650","COUNTRY_CODE":"US","TIME_SYSTEM":"UTC","CLASSIFICATION_TYPE":"U","OBJECT_ID":"2020-035BB","LAUNCH_DATE":"2020-06-04","TLE_LINE2":"2 45706  53.0548  39.4274 0001800  55.5956 304.5203 15.06395170101480"},{"OBJECT_TYPE":"PAYLOAD","PERIAPSIS":"545.805","APOAPSIS":"548.404","MEAN_ANOMALY":"306.1772","BSTAR":"-0.00038484000000","FILE":"3375650","EPHEMERIS_TYPE":"0","SEMIMAJOR_AXIS":"6925.240","CLASSIFICATION_TYPE":"U","TIME_SYSTEM":"UTC","COUNTRY_CODE":"US","TLE_LINE2":"2 45707  53.0565  38.2620 0001877  53.9391 306.1772 15.06435576101531","OBJECT_ID":"2020-035BC","LAUNCH_DATE":"2020-06-04","MEAN_MOTION":"15.06435576","MEAN_ELEMENT_THEORY":"SGP4","ECCENTRICITY":"0.00018770","ELEMENT_SET_NO":"999","NORAD_CAT_ID":"45707","MEAN_MOTION_DOT":"-0.00006015","PERIOD":"95.590","RA_OF_ASC_NODE":"38.2620","DECAY_DATE":null,"REV_AT_EPOCH":"10153","ARG_OF_PERICENTER":"53.9391","TLE_LINE1":"1 45707U 20035BC  22085.85155379 -.00006015  00000-0 -38484-3 0  9997","RCS_SIZE":"LARGE","CENTER_NAME":"EARTH","REF_FRAME":"TEME","SITE":"AFETR","INCLINATION":"53.0565","EPOCH":"2022-03-26T20:26:14.247456","GP_ID":"199776812","OBJECT_NAME":"STARLINK-1412","MEAN_MOTION_DDOT":"0.0000000000000"},{"COUNTRY_CODE":"US","TIME_SYSTEM":"UTC","CLASSIFICATION_TYPE":"U","TLE_LINE2":"2 45708  53.0553  39.5598 0001566  58.5335 301.5807 15.06396965101492","LAUNCH_DATE":"2020-06-04","OBJECT_ID":"2020-035BD","MEAN_ANOMALY":"301.5807","OBJECT_TYPE":"PAYLOAD","APOAPSIS":"548.307","PERIAPSIS":"546.138","EPHEMERIS_TYPE":"0","SEMIMAJOR_AXIS":"6925.358","BSTAR":"-0.00000728970000","FILE":"3375650","RCS_SIZE":"LARGE","CENTER_NAME":"EARTH","ARG_OF_PERICENTER":"58.5335","TLE_LINE1":"1 45708U 20035BD  22085.56037756 -.00000390  00000-0 -72897-5 0  9992","PERIOD":"95.592","MEAN_MOTION_DOT":"-0.00000390","RA_OF_ASC_NODE":"39.5598","REV_AT_EPOCH":"10149","DECAY_DATE":null,"NORAD_CAT_ID":"45708","MEAN_MOTION_DDOT":"0.0000000000000","EPOCH":"2022-03-26T13:26:56.621184","GP_ID":"199777563","OBJECT_NAME":"STARLINK-1418","SITE":"AFETR","REF_FRAME":"TEME","INCLINATION":"53.0553","MEAN_MOTION":"15.06396965","ELEMENT_SET_NO":"999","MEAN_ELEMENT_THEORY":"SGP4","ECCENTRICITY":"0.00015660"},{"LAUNCH_DATE":"2020-06-04","OBJECT_ID":"2020-035BE","TLE_LINE2":"2 45709  53.0564  38.2124 0001766  55.0932 305.0223 15.06395826101499","COUNTRY_CODE":"US","CLASSIFICATION_TYPE":"U","TIME_SYSTEM":"UTC","SEMIMAJOR_AXIS":"6925.361","EPHEMERIS_TYPE":"0","BSTAR":"0.00004977900000","FILE":"3375650","APOAPSIS":"548.449","PERIAPSIS":"546.003","OBJECT_TYPE":"PAYLOAD","MEAN_ANOMALY":"305.0223","OBJECT_NAME":"STARLINK-1421","GP_ID":"199777814","EPOCH":"2022-03-26T20:42:11.198304","MEAN_MOTION_DDOT":"0.0000000000000","INCLINATION":"53.0564","SITE":"AFETR","REF_FRAME":"TEME","TLE_LINE1":"1 45709U 20035BE  22085.86262961  .00000460  00000-0  49779-4 0  9992","ARG_OF_PERICENTER":"55.0932","CENTER_NAME":"EARTH","RCS_SIZE":"LARGE","NORAD_CAT_ID":"45709","DECAY_DATE":null,"REV_AT_EPOCH":"10149","MEAN_MOTION_DOT":"0.00000460","PERIOD":"95.592","RA_OF_ASC_NODE":"38.2124","ELEMENT_SET_NO":"999","MEAN_ELEMENT_THEORY":"SGP4","ECCENTRICITY":"0.00017660","MEAN_MOTION":"15.06395826"}];
